HST                     
1 20580U 90037B   26182.61595811  .00007591  00000+0  23920-3 0  9999
2 20580  28.4735 341.9512 0001541 322.8743  37.1747 15.30918365790782
POLAR                   
1 23802U 96013A   26181.13098335  .00000195  00000+0  00000+0 0  9997
2 23802  79.8705 226.8996 6483378 208.6352  90.6787  1.29846073145029
SWAS                    
1 25560U 98071A   26182.52641984  .00002210  00000+0  14328-3 0  9996
2 25560  69.8937 190.5385 0008448 245.9181 114.1100 15.09689562499435
CXO                     
1 25867U 99040B   26185.24501744  .00000765  00000+0  00000+0 0  9995
2 25867  56.3727 116.2458 7810468 310.0498   0.5720  0.37797064 17382
XMM-NEWTON              
1 25989U 99066A   26181.31376484  .00000075  00000+0  00000+0 0  9997
2 25989  64.4187 282.8185 4670815  64.6474   0.0796  0.50127122 23075
TERRA                   
1 25994U 99068A   26182.62327258  .00000442  00000+0  98958-4 0  9997
2 25994  97.9449 231.5967 0002677 150.7204  10.5658 14.61114647411711
CLUSTER II-FM7 (SAMBA)  
1 26410U 00041A   26183.75752675  .00012787  00000+0  00000+0 0  9995
2 26410 149.8840  53.4423 9072869 270.8480 359.6360  0.44834504 20376
CLUSTER II-FM8 (TANGO)  
1 26464U 00045B   26181.94601251  .00015784  00000+0  00000+0 0  9990
2 26464 150.1096  54.2616 9074787 271.4997   2.3331  0.44420098 20376
ODIN                    
1 26702U 01007A   26182.35909763  .00314995  00000+0  15340-2 0  9991
2 26702  97.3786 224.2639 0005633 135.4964 224.6758 15.81539977391637
TIMED                   
1 26998U 01055B   26182.45951898  .00001104  00000+0  10367-3 0  9998
2 26998  74.0662 206.2808 0001819 315.8381  44.2658 14.95321151332958
CORIOLIS                
1 27640U 03001A   26182.50157355  .00000100  00000+0  67595-4 0  9999
2 27640  98.7128 189.1678 0014212 166.9613 193.1934 14.19948669216251
SORCE                   
1 27651U 03004A   26182.48461830  .00002654  00000+0  20014-3 0  9997
2 27651  39.9887 180.1005 0016921 158.8049 201.3449 15.03777990274055
MOST                    
1 27843U 03031D   26182.50181790  .00000064  00000+0  49404-4 0  9995
2 27843  98.7044 190.0279 0009287 205.0983 154.9743 14.21325373192746
SCISAT 1                
1 27858U 03036A   26182.27173758  .00000702  00000+0  94230-4 0  9991
2 27858  73.9294 143.3586 0008049 213.2346 146.8326 14.81464087233537
SWIFT                   
1 28485U 04047A   26182.36508834  .00069726  00000+0  54859-3 0  9991
2 28485  20.5530  75.4229 0000976 136.6042 223.4481 15.69712038189090
HINODE (SOLAR-B)        
1 29479U 06041A   26182.49298511  .00000761  00000+0  13910-3 0  9990
2 29479  98.0543 198.4345 0016144 240.2562 119.7037 14.68642525 56971
SHIJIAN-6 02A (SJ-6 02A)
1 29505U 06046A   26182.60290969  .00008824  00000+0  44836-3 0  9996
2 29505  97.6344 223.7792 0004683  91.8007 268.3762 15.17110099 74452
SHIJIAN-6 02B (SJ-6 02B)
1 29506U 06046B   26182.60863649  .00001280  00000+0  10370-3 0  9993
2 29506  97.7150 211.5782 0015051  19.2877 340.8914 15.01411517 72908
FGRST (GLAST)           
1 33053U 08029A   26182.17522149  .00003318  00000+0  11946-3 0  9991
2 33053  25.5819 107.3482 0008450 129.6925 230.4359 15.24008432997978
SDO                     
1 36395U 10005A   26181.24558567 -.00000090  00000+0  00000+0 0  9990
2 36395  34.6771  86.1450 0001493  51.4419 126.9147  1.00270579 60198
CRYOSAT 2               
1 36508U 10013A   26182.62364495  .00000116  00000+0  28040-4 0  9990
2 36508  92.0362 280.8110 0002191  96.7665 263.3792 14.51903276860170
X-SAT                   
1 37389U 11015C   26182.61760208  .00000165  00000+0  87725-4 0  9991
2 37389  98.3513 158.9540 0013065 304.6199  55.3749 14.25210583789738
GCOM-W1 (SHIZUKU)       
1 38337U 12025A   26182.46361598  .00000523  00000+0  12606-3 0  9992
2 38337  98.2022 122.8032 0001574  68.5515  47.2023 14.57137952751111
NUSTAR                  
1 38358U 12031A   26182.58335648  .00009346  00000+0  52110-3 0  9998
2 38358   6.0264 286.1544 0008202 317.6473  63.4897 15.08933305  1308
NEOSSAT                 
1 39089U 13009D   26182.49523457  .00000147  00000+0  65603-4 0  9995
2 39089  98.4182   2.1880 0010576 197.8740 162.2076 14.35831376698791
BRITE-AUSTRIA           
1 39091U 13009F   26182.48674072  .00000186  00000+0  77794-4 0  9994
2 39091  98.4000   1.5689 0009890 190.8054 169.2922 14.36547747699101
IRIS                    
1 39197U 13033A   26182.50840266  .00001065  00000+0  12805-3 0  9999
2 39197  97.9321  21.7403 0022955 272.4899  87.3688 14.85913247702501
HISAKI (SPRINT-A)       
1 39253U 13049A   26182.34316252  .00000082  00000+0  24333-4 0  9992
2 39253  29.7178 148.0385 0136878 131.6184 229.6203 13.55545784633344
CASSIOPE                
1 39265U 13055A   26182.52323406  .00047516 -31071-6  51302-3 0  9999
2 39265  80.9127  49.2953 0287278  14.2047 346.7046 15.26503788669857
STSAT-3                 
1 39422U 13066G   26182.62816822  .00001772  00000+0  13670-3 0  9996
2 39422  97.6216 152.2842 0009734   0.8943 359.2298 15.02830652686374
SWARM B                 
1 39451U 13067A   26182.60166670  .00003710  00000+0  13205-3 0  9994
2 39451  87.7450 337.9363 0002850  80.4371 279.7200 15.28640427685440
